{
    "links": {
        "self": "http://www.neowsapp.com/rest/v1/neo/3944183?api_key=iIulBulltgU6a56xZRHN4H3l9WmuAYTsLGpBGhQ2"
    },
    "id": "3944183",
    "neo_reference_id": "3944183",
    "name": "(2019 YT2)",
    "designation": "2019 YT2",
    "nasa_jpl_url": "http://ssd.jpl.nasa.gov/sbdb.cgi?sstr=3944183",
    "absolute_magnitude_h": 24.8,
    "estimated_diameter": {
        "kilometers": {
            "estimated_diameter_min": 0.0291443905,
            "estimated_diameter_max": 0.0651688382
        },
        "meters": {
            "estimated_diameter_min": 29.1443904535,
            "estimated_diameter_max": 65.1688382168
        },
        "miles": {
            "estimated_diameter_min": 0.018109479,
            "estimated_diameter_max": 0.0404940262
        },
        "feet": {
            "estimated_diameter_min": 95.6180819754,
            "estimated_diameter_max": 213.8085311752
        }
    },
    "is_potentially_hazardous_asteroid": false,
    "close_approach_data": [
        {
            "close_approach_date": "2019-12-30",
            "close_approach_date_full": "2019-Dec-30 04:05",
            "epoch_date_close_approach": 1577678700000,
            "relative_velocity": {
                "kilometers_per_second": "8.4187115916",
                "kilometers_per_hour": "30307.3617297903",
                "miles_per_hour": "18831.8159592689"
            },
            "miss_distance": {
                "astronomical": "0.0362941429",
                "lunar": "14.1184215881",
                "kilometers": "5429526.471315623",
                "miles": "3373751.3063486774"
            },
            "orbiting_body": "Earth"
        }
    ],
    "orbital_data": {
        "orbit_id": "11",
        "orbit_determination_date": "2020-04-02 06:04:34",
        "first_observation_date": "2019-12-23",
        "last_observation_date": "2020-01-06",
        "data_arc_in_days": 14,
        "observations_used": 111,
        "orbit_uncertainty": "8",
        "minimum_orbit_intersection": ".0332987",
        "jupiter_tisserand_invariant": "3.597",
        "epoch_osculation": "2458842.5",
        "eccentricity": ".5059763599274255",
        "semi_major_axis": "2.056592324264174",
        "inclination": "10.29689526669033",
        "ascending_node_longitude": "94.15893061040957",
        "orbital_period": "1077.260517119861",
        "perihelion_distance": "1.016005226178304",
        "perihelion_argument": "4.35413466801931",
        "aphelion_distance": "3.097179422350045",
        "perihelion_time": "2458848.771094401865",
        "mean_anomaly": "357.904319383479",
        "mean_motion": ".334181002904003",
        "equinox": "J2000",
        "orbit_class": {
            "orbit_class_type": "APO",
            "orbit_class_description": "Near-Earth asteroid orbits which cross the Earth’s orbit similar to that of 1862 Apollo",
            "orbit_class_range": "a (semi-major axis) > 1.0 AU; q (perihelion) < 1.017 AU"
        }
    },
    "is_sentry_object": false
}